TIANQI-15               
1 49027U 21065B   26068.81163741  .00006722  00000+0  41179-3 0  9990
2 49027  34.9979 108.2420 0007067 250.7766 109.2180 15.09508085254244
STARLINK-4629           
1 53968U 22125E   26068.69213918  .00001396  00000+0  10578-3 0  9996
2 53968  53.2155 224.0272 0001403 103.9356 256.1792 15.08838312189322
